[{"OBJECT_NAME":"STARLINK-35481","OBJECT_ID":"2025-245P","EPOCH":"2026-03-09T20:52:44.180256","MEAN_MOTION":15.30198303,"ECCENTRICITY":0.0001015,"INCLINATION":53.1569,"RA_OF_ASC_NODE":283.0916,"ARG_OF_PERICENTER":73.3526,"MEAN_ANOMALY":286.7587,"EPHEMERIS_TYPE":0,"CLASSIFICATION_TYPE":"U","NORAD_CAT_ID":66247,"ELEMENT_SET_NO":999,"REV_AT_EPOCH":2128,"BSTAR":0.00059083511,"MEAN_MOTION_DOT":0.00017179,"MEAN_MOTION_DDOT":0},{"OBJECT_NAME":"SIMSAT 2","OBJECT_ID":"2000-026B","EPOCH":"2026-03-09T20:25:01.673184","MEAN_MOTION":15.29036787,"ECCENTRICITY":0.00037035,"INCLINATION":86.3514,"RA_OF_ASC_NODE":176.4271,"ARG_OF_PERICENTER":287.9875,"MEAN_ANOMALY":72.0969,"EPHEMERIS_TYPE":0,"CLASSIFICATION_TYPE":"U","NORAD_CAT_ID":26366,"ELEMENT_SET_NO":999,"REV_AT_EPOCH":42803,"BSTAR":0.00013465771,"MEAN_MOTION_DOT":3.833e-5,"MEAN_MOTION_DDOT":0}]
